{
  "type": "FeatureCollection",
  "features": [
    {
      "type": "Feature",
      "properties": {
        "norad_id": 66661,
        "name": "SNUGLITE-III",
        "group": "last-30-days",
        "lat": -21.42352028999392,
        "lon": -83.84274664779106,
        "alt_km": 588.0279875438355,
        "timestamp": "2025-12-11T20:41:13.848383+00:00",
        "meta_object_name": "SNUGLITE-III",
        "meta_object_id": "2025-274M",
        "meta_epoch": "2025-12-11T14:21:00.440928",
        "meta_mean_motion": 14.93087513,
        "meta_eccentricity": 0.00134305,
        "meta_inclination": 97.7384,
        "meta_ra_of_asc_node": 272.8391,
        "meta_arg_of_pericenter": 286.3435,
        "meta_mean_anomaly": 73.6308,
        "meta_ephemeris_type": 0,
        "meta_classification_type": "U",
        "meta_norad_cat_id": 66661,
        "meta_element_set_no": 999,
        "meta_rev_at_epoch": 223,
        "meta_bstar": 0.00038339915,
        "meta_mean_motion_dot": 3.944e-05,
        "meta_mean_motion_ddot": 0,
        "tle_line1": "1 66661U 25274M   25345.59792177  .00003944  00000+0  38340-3 0  9991",
        "tle_line2": "2 66661  97.7384 272.8391 0013430 286.3435  73.6308 14.93087513  2234"
      },
      "geometry": {
        "type": "Point",
        "coordinates": [
          -83.84274664779106,
          -21.42352028999392
        ]
      }
    },
    {
      "type": "Feature",
      "properties": {
        "norad_id": 66662,
        "name": "2025-274N",
        "group": "last-30-days",
        "lat": -18.245860927325605,
        "lon": -84.3305116744891,
        "alt_km": 587.8918346803439,
        "timestamp": "2025-12-11T20:41:13.848394+00:00",
        "meta_object_name": "2025-274N",
        "meta_object_id": "2025-274N",
        "meta_epoch": "2025-12-11T12:43:39.577152",
        "meta_mean_motion": 14.9313799,
        "meta_eccentricity": 0.00138918,
        "meta_inclination": 97.7384,
        "meta_ra_of_asc_node": 272.7739,
        "meta_arg_of_pericenter": 286.1845,
        "meta_mean_anomaly": 73.7846,
        "meta_ephemeris_type": 0,
        "meta_classification_type": "U",
        "meta_norad_cat_id": 66662,
        "meta_element_set_no": 999,
        "meta_rev_at_epoch": 222,
        "meta_bstar": 0.00042339892,
        "meta_mean_motion_dot": 4.368e-05,
        "meta_mean_motion_ddot": 0,
        "tle_line1": "1 66662U 25274N   25345.53031918  .00004368  00000+0  42340-3 0  9991",
        "tle_line2": "2 66662  97.7384 272.7739 0013891 286.1845  73.7846 14.93137990  2226"
      },
      "geometry": {
        "type": "Point",
        "coordinates": [
          -84.3305116744891,
          -18.245860927325605
        ]
      }
    },
    {
      "type": "Feature",
      "properties": {
        "norad_id": 66663,
        "name": "KSLV-II R/B",
        "group": "last-30-days",
        "lat": -30.265475480324888,
        "lon": 88.65969148778423,
        "alt_km": 594.7617110865649,
        "timestamp": "2025-12-11T20:41:13.848404+00:00",
        "meta_object_name": "KSLV-II R/B",
        "meta_object_id": "2025-274P",
        "meta_epoch": "2025-12-11T13:19:49.577952",
        "meta_mean_motion": 14.9727818,
        "meta_eccentricity": 0.00516948,
        "meta_inclination": 97.741,
        "meta_ra_of_asc_node": 272.9089,
        "meta_arg_of_pericenter": 323.7327,
        "meta_mean_anomaly": 36.0394,
        "meta_ephemeris_type": 0,
        "meta_classification_type": "U",
        "meta_norad_cat_id": 66663,
        "meta_element_set_no": 999,
        "meta_rev_at_epoch": 223,
        "meta_bstar": 0.00072336781,
        "meta_mean_motion_dot": 8.559e-05,
        "meta_mean_motion_ddot": 0,
        "tle_line1": "1 66663U 25274P   25345.55543493  .00008559  00000+0  72337-3 0  9995",
        "tle_line2": "2 66663  97.7410 272.9089 0051694 323.7327  36.0394 14.97278180  2235"
      },
      "geometry": {
        "type": "Point",
        "coordinates": [
          88.65969148778423,
          -30.265475480324888
        ]
      }
    },
    {
      "type": "Feature",
      "properties": {
        "norad_id": 66664,
        "name": "SOYUZ-MS 28",
        "group": "last-30-days",
        "lat": 8.408180430740906,
        "lon": -39.900409516428496,
        "alt_km": 416.85979454837525,
        "timestamp": "2025-12-11T20:41:13.848415+00:00",
        "meta_object_name": "SOYUZ-MS 28",
        "meta_object_id": "2025-275A",
        "meta_epoch": "2025-12-11T12:13:14.837664",
        "meta_mean_motion": 15.49508857,
        "meta_eccentricity": 0.00033166,
        "meta_inclination": 51.6308,
        "meta_ra_of_asc_node": 148.5724,
        "meta_arg_of_pericenter": 235.7177,
        "meta_mean_anomaly": 124.3498,
        "meta_ephemeris_type": 0,
        "meta_classification_type": "U",
        "meta_norad_cat_id": 66664,
        "meta_element_set_no": 999,
        "meta_rev_at_epoch": 128,
        "meta_bstar": 0.00026544961,
        "meta_mean_motion_dot": 0.00014464,
        "meta_mean_motion_ddot": 0,
        "tle_line1": "1 66664U 25275A   25345.50919951  .00014464  00000+0  26545-3 0  9990",
        "tle_line2": "2 66664  51.6308 148.5724 0003316 235.7177 124.3498 15.49508857  1283"
      },
      "geometry": {
        "type": "Point",
        "coordinates": [
          -39.900409516428496,
          8.408180430740906
        ]
      }
    },
    {
      "type": "Feature",
      "properties": {
        "norad_id": 66791,
        "name": "STARLINK-35867",
        "group": "last-30-days",
        "lat": 25.673835905442825,
        "lon": -71.37824644429423,
        "alt_km": 301.78638352993767,
        "timestamp": "2025-12-11T20:41:13.848427+00:00",
        "meta_object_name": "STARLINK-35867",
        "meta_object_id": "2025-278A",
        "meta_epoch": "2025-12-11T14:00:01.999872",
        "meta_mean_motion": 15.89732531,
        "meta_eccentricity": 0.00019749,
        "meta_inclination": 42.998,
        "meta_ra_of_asc_node": 259.2904,
        "meta_arg_of_pericenter": 260.9207,
        "meta_mean_anomaly": 342.4451,
        "meta_ephemeris_type": 0,
        "meta_classification_type": "U",
        "meta_norad_cat_id": 66791,
        "meta_element_set_no": 999,
        "meta_rev_at_epoch": 277,
        "meta_bstar": -0.0038608355,
        "meta_mean_motion_dot": -0.010537,
        "meta_mean_motion_ddot": 0,
        "tle_line1": "1 66791U 25278A   25345.58335648 -.01053700  00000+0 -38608-2 0  9998",
        "tle_line2": "2 66791  42.9980 259.2904 0001974 260.9207 342.4451 15.89732531  2774"
      },
      "geometry": {
        "type": "Point",
        "coordinates": [
          -71.37824644429423,
          25.673835905442825
        ]
      }
    },
    {
      "type": "Feature",
      "properties": {
        "norad_id": 66792,
        "name": "STARLINK-35990",
        "group": "last-30-days",
        "lat": 26.58607951207918,
        "lon": -69.95313451695479,
        "alt_km": 301.5833903944049,
        "timestamp": "2025-12-11T20:41:13.848437+00:00",
        "meta_object_name": "STARLINK-35990",
        "meta_object_id": "2025-278B",
        "meta_epoch": "2025-12-11T14:00:01.999872",
        "meta_mean_motion": 15.8976383,
        "meta_eccentricity": 0.0002,
        "meta_inclination": 42.9978,
        "meta_ra_of_asc_node": 259.2865,
        "meta_arg_of_pericenter": 261.0301,
        "meta_mean_anomaly": 343.8763,
        "meta_ephemeris_type": 0,
        "meta_classification_type": "U",
        "meta_norad_cat_id": 66792,
        "meta_element_set_no": 999,
        "meta_rev_at_epoch": 277,
        "meta_bstar": -0.0038446143,
        "meta_mean_motion_dot": -0.0105128,
        "meta_mean_motion_ddot": 0,
        "tle_line1": "1 66792U 25278B   25345.58335648 -.01051280  00000+0 -38446-2 0  9990",
        "tle_line2": "2 66792  42.9978 259.2865 0002000 261.0301 343.8763 15.89763830  2773"
      },
      "geometry": {
        "type": "Point",
        "coordinates": [
          -69.95313451695479,
          26.58607951207918
        ]
      }
    },
    {
      "type": "Feature",
      "properties": {
        "norad_id": 66793,
        "name": "STARLINK-36051",
        "group": "last-30-days",
        "lat": 29.43567028828335,
        "lon": -65.18012811885046,
        "alt_km": 300.9731228154469,
        "timestamp": "2025-12-11T20:41:13.848448+00:00",
        "meta_object_name": "STARLINK-36051",
        "meta_object_id": "2025-278C",
        "meta_epoch": "2025-12-11T14:00:01.999872",
        "meta_mean_motion": 15.89838226,
        "meta_eccentricity": 0.00019452,
        "meta_inclination": 42.9981,
        "meta_ra_of_asc_node": 259.2739,
        "meta_arg_of_pericenter": 262.1395,
        "meta_mean_anomaly": 347.7887,
        "meta_ephemeris_type": 0,
        "meta_classification_type": "U",
        "meta_norad_cat_id": 66793,
        "meta_element_set_no": 999,
        "meta_rev_at_epoch": 267,
        "meta_bstar": -0.0038886846,
        "meta_mean_motion_dot": -0.01065571,
        "meta_mean_motion_ddot": 0,
        "tle_line1": "1 66793U 25278C   25345.58335648 -.01065571  00000+0 -38887-2 0  9998",
        "tle_line2": "2 66793  42.9981 259.2739 0001945 262.1395 347.7887 15.89838226  2671"
      },
      "geometry": {
        "type": "Point",
        "coordinates": [
          -65.18012811885046,
          29.43567028828335
        ]
      }
    }
  ]
}